NORAD_CAT_ID,OBJECT_NAME,OBJECT_TYPE,EPOCH,MEAN_MOTION,ECCENTRICITY,INCLINATION,RA_OF_ASC_NODE,ARG_OF_PERICENTER,MEAN_ANOMALY,BSTAR,MEAN_MOTION_DOT,MEAN_MOTION_DDOT,TLE_LINE0,TLE_LINE1,TLE_LINE2,SEMIMAJOR_AXIS,PERIOD,APOGEE,PERIGEE,DECAYED
52707.0,STARLINK-4007,PAYLOAD,2022-11-17 14:03:08,15.08847661,0.0002441,53.2163,157.5188,35.8459,324.2697,0.00016025,2.264e-05,0.0,0 STARLINK-4007,1 52707U 22053BD  22321.58550976  .00002264  00000-0  16025-3 0  9999,2 52707  53.2163 157.5188 0002441  35.8459 324.2697 15.08847661 28507,6917.857,95.437,541.411,538.033,0.0
52707.0,STARLINK-4007,PAYLOAD,2022-11-18 07:32:22,15.088499300000002,0.000248,53.2161,154.2476,37.3014,322.815,0.00021677,3.164e-05,0.0,0 STARLINK-4007,1 52707U 22053BD  22322.31414557  .00003164  00000-0  21677-3 0  9994,2 52707  53.2161 154.2476 0002480  37.3014 322.8150 15.08849930 29102,6917.85,95.437,541.431,537.999,0.0
52707.0,STARLINK-4007,PAYLOAD,2022-11-18 15:29:18,15.08838066,0.0002514,53.216,152.7608,38.0156,322.1013,1.5401e-05,-4.3e-07,0.0,0 STARLINK-4007,1 52707U 22053BD  22322.64535205 -.00000043  00000-0  15401-4 0  9997,2 52707  53.2160 152.7608 0002514  38.0156 322.1013 15.08838066 28663,6917.886,95.438,541.49,538.012,0.0
52707.0,STARLINK-4007,PAYLOAD,2022-11-18 21:50:50,15.08837302,0.0002552,53.216,151.5713,38.1775,321.9398,-1.8337e-05,-5.8e-06,0.0,0 STARLINK-4007,1 52707U 22053BD  22322.91031230 -.00000580  00000-0 -18337-4 0  9994,2 52707  53.2160 151.5713 0002552  38.1775 321.9398 15.08837302 29191,6917.889,95.438,541.519,537.988,0.0
52707.0,STARLINK-4007,PAYLOAD,2022-11-19 18:30:51,15.08842496,0.0002512,53.217,147.7056,39.0602,321.0571,5.5675e-05,5.98e-06,0.0,0 STARLINK-4007,1 52707U 22053BD  22323.77143359  .00000598  00000-0  55675-4 0  9998,2 52707  53.2170 147.7056 0002512  39.0602 321.0571 15.08842496 28838,6917.873000000001,95.437,541.476,538.0,0.0
52707.0,STARLINK-4007,PAYLOAD,2022-11-20 12:00:06,15.08841402,0.0002529,53.2169,144.4343,39.6029,320.5148,0.0001284999999999,1.757e-05,0.0,0 STARLINK-4007,1 52707U 22053BD  22324.50007176  .00001757  00000-0  12850-3 0  9991,2 52707  53.2169 144.4343 0002529  39.6029 320.5148 15.08841402 29433,6917.876,95.437,541.491,537.992,0.0
52707.0,STARLINK-4007,PAYLOAD,2022-11-20 18:21:38,15.08843244,0.0002543,53.2169,143.2447,40.2486,319.8694,0.00013743,1.9e-05,0.0,0 STARLINK-4007,1 52707U 22053BD  22324.76503047  .00001900  00000-0  13743-3 0  9999,2 52707  53.2169 143.2447 0002543  40.2486 319.8694 15.08843244 29473,6917.87,95.437,541.495,537.976,0.0
52707.0,STARLINK-4007,PAYLOAD,2022-11-21 05:29:20,15.08846109,0.0002596,53.217,141.1635,40.6795,319.4391,0.0001704,2.425e-05,0.0,0 STARLINK-4007,1 52707U 22053BD  22325.22870840  .00002425  00000-0  17040-3 0  9996,2 52707  53.2170 141.1635 0002596  40.6795 319.4391 15.08846109 29053,6917.861999999999,95.437,541.523,537.931,0.0
52707.0,STARLINK-4007,PAYLOAD,2022-11-21 11:50:52,15.08846846,0.00026,53.2169,139.9739,41.5455,318.5734,0.00015768,2.222e-05,0.0,0 STARLINK-4007,1 52707U 22053BD  22325.49366762  .00002222  00000-0  15768-3 0  9998,2 52707  53.2169 139.9739 0002600  41.5455 318.5734 15.08846846 29587,6917.859,95.437,541.523,537.9259999999998,0.0
52707.0,STARLINK-4007,PAYLOAD,2022-11-21 16:37:02,15.08841692,0.000261,53.2169,139.0819,42.1736,317.9457,0.0001031,1.353e-05,0.0,0 STARLINK-4007,1 52707U 22053BD  22325.69239196  .00001353  00000-0  10310-3 0  9992,2 52707  53.2169 139.0819 0002610  42.1736 317.9457 15.08841692 29126,6917.875,95.437,541.5459999999998,537.935,0.0
52707.0,STARLINK-4007,PAYLOAD,2022-11-21 18:12:25,15.08840343,0.0002609,53.2169,138.7845,42.4825,317.6369,8.9987e-05,1.144e-05,0.0,0 STARLINK-4007,1 52707U 22053BD  22325.75863286  .00001144  00000-0  89987-4 0  9997,2 52707  53.2169 138.7845 0002609  42.4825 317.6369 15.08840343 29627,6917.879,95.438,541.549,537.939,0.0
52707.0,STARLINK-4007,PAYLOAD,2022-11-22 11:41:40,15.08836642,0.0002654,53.2173,135.5139,41.4947,318.6246,1.8285e-05,3e-08,0.0,0 STARLINK-4007,1 52707U 22053BD  22326.48727817  .00000003  00000-0  18285-4 0  9993,2 52707  53.2173 135.5139 0002654  41.4947 318.6246 15.08836642 29731,6917.891,95.438,541.592,537.92,0.0
52707.0,STARLINK-4007,PAYLOAD,2022-11-22 18:03:13,15.08836496,0.0002581,53.2175,134.3241,42.5327,317.5865,6.7022e-05,7.78e-06,0.0,0 STARLINK-4007,1 52707U 22053BD  22326.75223657  .00000778  00000-0  67022-4 0  9998,2 52707  53.2175 134.3241 0002581  42.5327 317.5865 15.08836496 29289,6917.891,95.438,541.5419999999998,537.971,0.0
52707.0,STARLINK-4007,PAYLOAD,2022-11-23 11:32:27,15.088537,0.0002603,53.2175,131.0532,39.7515,320.3667,-0.00014369,-2.576e-05,0.0,0 STARLINK-4007,1 52707U 22053BD  22327.48087013 -.00002576  00000-0 -14369-3 0  9998,2 52707  53.2175 131.0532 0002603  39.7515 320.3667 15.08853700 29399,6917.839,95.437,541.504,537.903,0.0
52707.0,STARLINK-4007,PAYLOAD,2022-11-23 17:53:59,15.0885837,0.0002662,53.2177,129.8637,40.7372,319.3818,-0.00016113,-2.853e-05,0.0,0 STARLINK-4007,1 52707U 22053BD  22327.74582529 -.00002853  00000-0 -16113-3 0  9996,2 52707  53.2177 129.8637 0002662  40.7372 319.3818 15.08858370 29923,6917.824000000001,95.436,541.531,537.8480000000002,0.0
52707.0,STARLINK-4007,PAYLOAD,2022-11-24 11:23:18,15.08786473,0.0002846,53.218,126.593,49.8625,310.2616,-0.00039243,-6.52e-05,0.0,0 STARLINK-4007,1 52707U 22053BD  22328.47452024 -.00006520  00000-0 -39243-3 0  9997,2 52707  53.2180 126.5930 0002846  49.8625 310.2616 15.08786473 29540,6918.044,95.441,541.878,537.94,0.0
52707.0,STARLINK-4007,PAYLOAD,2022-11-24 17:44:47,15.08832453,0.0002255,53.2184,125.3993,40.0591,320.0567,-3.0774e-06,-3.37e-06,0.0,0 STARLINK-4007,1 52707U 22053BD  22328.73944254 -.00000337  00000-0 -30774-5 0  9999,2 52707  53.2184 125.3993 0002255  40.0591 320.0567 15.08832453 29587,6917.903,95.438,541.328,538.2080000000002,0.0
52707.0,STARLINK-4007,PAYLOAD,2022-11-24 19:20:10,15.08834465,0.0002593,53.218,125.106,43.4973,316.6223,2.2489e-05,6.9e-07,0.0,0 STARLINK-4007,1 52707U 22053BD  22328.80568051  .00000069  00000-0  22489-4 0  9997,2 52707  53.2180 125.1060 0002593  43.4973 316.6223 15.08834465 30084,6917.897,95.438,541.556,537.9680000000002,0.0
52707.0,STARLINK-4007,PAYLOAD,2022-11-25 09:38:38,15.08837723,0.0002627,53.2175,122.4288,42.8872,317.2325,7.6219000000000015e-06,-1.67e-06,0.0,0 STARLINK-4007,1 52707U 22053BD  22329.40184015 -.00000167  00000-0  76219-5 0  9999,2 52707  53.2175 122.4288 0002627  42.8872 317.2325 15.08837723 30179,6917.887,95.438,541.57,537.935,0.0
52707.0,STARLINK-4007,PAYLOAD,2022-11-25 17:35:34,15.08844149,0.0002655,53.2175,120.9421,43.7707,316.3495,7.0351e-05,8.31e-06,0.0,0 STARLINK-4007,1 52707U 22053BD  22329.73303571  .00000831  00000-0  70351-4 0  9992,2 52707  53.2175 120.9421 0002655  43.7707 316.3495 15.08844149 29737,6917.868,95.437,541.569,537.896,0.0
52707.0,STARLINK-4007,PAYLOAD,2022-11-25 20:46:20,15.08844892,0.0002661,53.2177,120.3478,44.8548,315.2659,8.2838e-05,1.03e-05,0.0,0 STARLINK-4007,1 52707U 22053BD  22329.86551528  .00001030  00000-0  82838-4 0  9998,2 52707  53.2177 120.3478 0002661  44.8548 315.2659 15.08844892 30240,6917.865,95.437,541.571,537.89,0.0
52707.0,STARLINK-4007,PAYLOAD,2022-11-26 12:40:11,15.08849862,0.0002335,53.2169,117.3739,38.9173,321.1987,0.00017393,2.482e-05,0.0,0 STARLINK-4007,1 52707U 22053BD  22330.52790761  .00002482  00000-0  17393-3 0  9992,2 52707  53.2169 117.3739 0002335  38.9173 321.1987 15.08849862 30346,6917.85,95.437,541.331,538.1,0.0
52707.0,STARLINK-4007,PAYLOAD,2022-11-26 19:01:43,15.08848974,0.0002693,53.2169,116.1846,44.7007,315.4202,0.00023439,3.445e-05,0.0,0 STARLINK-4007,1 52707U 22053BD  22330.79286903  .00003445  00000-0  23439-3 0  9997,2 52707  53.2169 116.1846 0002693  44.7007 315.4202 15.08848974 30383,6917.853,95.437,541.581,537.855,0.0
52707.0,STARLINK-4007,PAYLOAD,2022-11-27 09:20:12,15.08843879,0.0002723999999999,53.217,113.5084,45.429,314.6924,9.7665e-05,1.266e-05,0.0,0 STARLINK-4007,1 52707U 22053BD  22331.38903110  .00001266  00000-0  97665-4 0  9991,2 52707  53.2170 113.5084 0002724  45.4290 314.6924 15.08843879 29982,6917.869000000002,95.437,541.618,537.849,0.0
52707.0,STARLINK-4007,PAYLOAD,2022-11-27 17:17:08,15.08835138,0.0002438,53.2167,112.019,46.9799,313.1397,-7.880800000000001e-05,-1.542e-05,0.0,0 STARLINK-4007,1 52707U 22053BD  22331.72023557 -.00001542  00000-0 -78808-4 0  9994,2 52707  53.2167 112.0190 0002438  46.9799 313.1397 15.08835138 30521,6917.895,95.438,541.447,538.0740000000002,0.0
52707.0,STARLINK-4007,PAYLOAD,2022-11-28 15:32:32,15.08845868,0.0002645,53.218,107.8588,45.0635,315.0572,3.078e-05,2.01e-06,0.0,0 STARLINK-4007,1 52707U 22053BD  22332.64759335  .00000201  00000-0  30780-4 0  9992,2 52707  53.2180 107.8588 0002645  45.0635 315.0572 15.08845868 30176,6917.861999999999,95.437,541.557,537.898,0.0
52707.0,STARLINK-4007,PAYLOAD,2022-11-29 10:37:09,15.08840729,0.000304,53.2183,104.2934,35.9471,324.1725,8.187899999999999e-05,1.015e-05,0.0,0 STARLINK-4007,1 52707U 22053BD  22333.44247575  .00001015  00000-0  81879-4 0  9998,2 52707  53.2183 104.2934 0003040  35.9471 324.1725 15.08840729 30780,6917.878000000002,95.438,541.846,537.64,0.0
52707.0,STARLINK-4007,PAYLOAD,2022-11-29 15:23:19,15.08839996,0.000257,53.2176,103.3979,44.3375,315.7822,0.00013564,1.871e-05,0.0,0 STARLINK-4007,1 52707U 22053BD  22333.64119590  .00001871  00000-0  13564-3 0  9990,2 52707  53.2176 103.3979 0002570  44.3375 315.7822 15.08839996 30323,6917.88,95.438,541.523,537.9680000000002,0.0
52707.0,STARLINK-4007,PAYLOAD,2022-11-30 08:52:34,15.08837113,0.0002676,53.2173,100.1278,44.1548,315.9658,5.3352e-05,5.61e-06,0.0,0 STARLINK-4007,1 52707U 22053BD  22334.36983951  .00000561  00000-0  53352-4 0  9995,2 52707  53.2173 100.1278 0002676  44.1548 315.9658 15.08837113 30928,6917.889,95.438,541.605,537.903,0.0
